{"type": "FeatureCollection", "features": [ {"type": "Feature", "properties": {"norad_id": 66574, "name": "STARLINK-35812", "group": "last-30-days", "lat": -42.82428099113877, "lon": -31.95502394725805, "alt_km": 404.22619763391776, "timestamp": "2025-12-22T11:33:19.152909+00:00", "meta": {"OBJECT_NAME": "STARLINK-35812", "OBJECT_ID": "2025-268T", "EPOCH": "2025-12-22T04:00:01.998720", "MEAN_MOTION": 15.56497025, "ECCENTRICITY": 0.0001444, "INCLINATION": 43.0007, "RA_OF_ASC_NODE": 65.881, "ARG_OF_PERICENTER": 252.4466, "MEAN_ANOMALY": 47.9981, "EPHEMERIS_TYPE": 0, "CLASSIFICATION_TYPE": "U", "NORAD_CAT_ID": 66574, "ELEMENT_SET_NO": 999, "REV_AT_EPOCH": 608, "BSTAR": -0.03164, "MEAN_MOTION_DOT": -0.02054549, "MEAN_MOTION_DDOT": 0}, "tle": {"line1": "1 66574U 25268T   25356.16668980 -.02054549  00000+0 -31640-1 0  9991", "line2": "2 66574  43.0007  65.8810 0001444 252.4466  47.9981 15.56497025  6080"}}, "geometry": {"type": "Point", "coordinates": [-31.95502394725805, -42.82428099113877]}}, {"type": "Feature", "properties": {"norad_id": 66575, "name": "STARLINK-35810", "group": "last-30-days", "lat": -42.951377650099396, "lon": -28.548098565028706, "alt_km": 401.65204533609904, "timestamp": "2025-12-22T11:33:19.152919+00:00", "meta": {"OBJECT_NAME": "STARLINK-35810", "OBJECT_ID": "2025-268U", "EPOCH": "2025-12-22T04:00:01.998720", "MEAN_MOTION": 15.5681812, "ECCENTRICITY": 0.0001988, "INCLINATION": 43.0006, "RA_OF_ASC_NODE": 65.8764, "ARG_OF_PERICENTER": 247.0293, "MEAN_ANOMALY": 55.2839, "EPHEMERIS_TYPE": 0, "CLASSIFICATION_TYPE": "U", "NORAD_CAT_ID": 66575, "ELEMENT_SET_NO": 999, "REV_AT_EPOCH": 608, "BSTAR": -0.020691, "MEAN_MOTION_DOT": -0.01372409, "MEAN_MOTION_DDOT": 0}, "tle": {"line1": "1 66575U 25268U   25356.16668980 -.01372409  00000+0 -20691-1 0  9993", "line2": "2 66575  43.0006  65.8764 0001988 247.0293  55.2839 15.56818120  6086"}}, "geometry": {"type": "Point", "coordinates": [-28.548098565028706, -42.951377650099396]}}, {"type": "Feature", "properties": {"norad_id": 66576, "name": "STARLINK-35814", "group": "last-30-days", "lat": -42.979926853971484, "lon": -25.757391818144608, "alt_km": 400.35963454404464, "timestamp": "2025-12-22T11:33:19.152929+00:00", "meta": {"OBJECT_NAME": "STARLINK-35814", "OBJECT_ID": "2025-268V", "EPOCH": "2025-12-22T04:00:01.998720", "MEAN_MOTION": 15.56484773, "ECCENTRICITY": 0.000189, "INCLINATION": 43.0007, "RA_OF_ASC_NODE": 65.8717, "ARG_OF_PERICENTER": 250.1259, "MEAN_ANOMALY": 54.1533, "EPHEMERIS_TYPE": 0, "CLASSIFICATION_TYPE": "U", "NORAD_CAT_ID": 66576, "ELEMENT_SET_NO": 999, "REV_AT_EPOCH": 608, "BSTAR": -0.0028711, "MEAN_MOTION_DOT": -0.00203969, "MEAN_MOTION_DDOT": 0}, "tle": {"line1": "1 66576U 25268V   25356.16668980 -.00203969  00000+0 -28711-2 0  9999", "line2": "2 66576  43.0007  65.8717 0001890 250.1259  54.1533 15.56484773  6087"}}, "geometry": {"type": "Point", "coordinates": [-25.757391818144608, -42.979926853971484]}}, {"type": "Feature", "properties": {"norad_id": 66577, "name": "STARLINK-35815", "group": "last-30-days", "lat": -42.944536744087706, "lon": -23.13903662659427, "alt_km": 400.35930019852003, "timestamp": "2025-12-22T11:33:19.152939+00:00", "meta": {"OBJECT_NAME": "STARLINK-35815", "OBJECT_ID": "2025-268W", "EPOCH": "2025-12-22T04:00:01.998720", "MEAN_MOTION": 15.56428878, "ECCENTRICITY": 0.0001599, "INCLINATION": 43.0005, "RA_OF_ASC_NODE": 65.8668, "ARG_OF_PERICENTER": 260.3185, "MEAN_ANOMALY": 45.889, "EPHEMERIS_TYPE": 0, "CLASSIFICATION_TYPE": "U", "NORAD_CAT_ID": 66577, "ELEMENT_SET_NO": 999, "REV_AT_EPOCH": 608, "BSTAR": -0.00048357, "MEAN_MOTION_DOT": -0.00035316, "MEAN_MOTION_DDOT": 0}, "tle": {"line1": "1 66577U 25268W   25356.16668980 -.00035316  00000+0 -48357-3 0  9998", "line2": "2 66577  43.0005  65.8668 0001599 260.3185  45.8890 15.56428878  6085"}}, "geometry": {"type": "Point", "coordinates": [-23.13903662659427, -42.944536744087706]}}, {"type": "Feature", "properties": {"norad_id": 66578, "name": "STARLINK-35743", "group": "last-30-days", "lat": -42.849796314799576, "lon": -20.530717798286837, "alt_km": 400.41764933526065, "timestamp": "2025-12-22T11:33:19.152949+00:00", "meta": {"OBJECT_NAME": "STARLINK-35743", "OBJECT_ID": "2025-268X", "EPOCH": "2025-12-22T04:00:01.998720", "MEAN_MOTION": 15.56463182, "ECCENTRICITY": 0.0001665, "INCLINATION": 43.0005, "RA_OF_ASC_NODE": 65.8624, "ARG_OF_PERICENTER": 255.3587, "MEAN_ANOMALY": 52.7616, "EPHEMERIS_TYPE": 0, "CLASSIFICATION_TYPE": "U", "NORAD_CAT_ID": 66578, "ELEMENT_SET_NO": 999, "REV_AT_EPOCH": 608, "BSTAR": -0.0018251, "MEAN_MOTION_DOT": -0.00130872, "MEAN_MOTION_DDOT": 0}, "tle": {"line1": "1 66578U 25268X   25356.16668980 -.00130872  00000+0 -18251-2 0  9991", "line2": "2 66578  43.0005  65.8624 0001665 255.3587  52.7616 15.56463182  6082"}}, "geometry": {"type": "Point", "coordinates": [-20.530717798286837, -42.849796314799576]}}, {"type": "Feature", "properties": {"norad_id": 66579, "name": "STARLINK-35868", "group": "last-30-days", "lat": -42.698518336186446, "lon": -17.969954606045597, "alt_km": 400.430276962049, "timestamp": "2025-12-22T11:33:19.152960+00:00", "meta": {"OBJECT_NAME": "STARLINK-35868", "OBJECT_ID": "2025-268Y", "EPOCH": "2025-12-22T04:00:01.998720", "MEAN_MOTION": 15.56418861, "ECCENTRICITY": 0.0001666, "INCLINATION": 43.0006, "RA_OF_ASC_NODE": 65.857, "ARG_OF_PERICENTER": 251.5341, "MEAN_ANOMALY": 58.4982, "EPHEMERIS_TYPE": 0, "CLASSIFICATION_TYPE": "U", "NORAD_CAT_ID": 66579, "ELEMENT_SET_NO": 999, "REV_AT_EPOCH": 616, "BSTAR": -0.00069799, "MEAN_MOTION_DOT": -0.00050696, "MEAN_MOTION_DDOT": 0}, "tle": {"line1": "1 66579U 25268Y   25356.16668980 -.00050696  00000+0 -69799-3 0  9991", "line2": "2 66579  43.0006  65.8570 0001666 251.5341  58.4982 15.56418861  6163"}}, "geometry": {"type": "Point", "coordinates": [-17.969954606045597, -42.698518336186446]}}, {"type": "Feature", "properties": {"norad_id": 66580, "name": "STARLINK-35872", "group": "last-30-days", "lat": -42.48310963658831, "lon": -15.3466869610957, "alt_km": 400.47116405034467, "timestamp": "2025-12-22T11:33:19.152970+00:00", "meta": {"OBJECT_NAME": "STARLINK-35872", "OBJECT_ID": "2025-268Z", "EPOCH": "2025-12-22T04:00:01.998720", "MEAN_MOTION": 15.56486942, "ECCENTRICITY": 0.0001555, "INCLINATION": 43.0006, "RA_OF_ASC_NODE": 65.8534, "ARG_OF_PERICENTER": 259.5383, "MEAN_ANOMALY": 52.4105, "EPHEMERIS_TYPE": 0, "CLASSIFICATION_TYPE": "U", "NORAD_CAT_ID": 66580, "ELEMENT_SET_NO": 999, "REV_AT_EPOCH": 608, "BSTAR": -0.0023407, "MEAN_MOTION_DOT": -0.00167129, "MEAN_MOTION_DDOT": 0}, "tle": {"line1": "1 66580U 25268Z   25356.16668980 -.00167129  00000+0 -23407-2 0  9998", "line2": "2 66580  43.0006  65.8534 0001555 259.5383  52.4105 15.56486942  6083"}}, "geometry": {"type": "Point", "coordinates": [-15.3466869610957, -42.48310963658831]}}, {"type": "Feature", "properties": {"norad_id": 66581, "name": "STARLINK-35744", "group": "last-30-days", "lat": -42.21835981189369, "lon": -12.832424870556489, "alt_km": 400.4470253718637, "timestamp": "2025-12-22T11:33:19.152980+00:00", "meta": {"OBJECT_NAME": "STARLINK-35744", "OBJECT_ID": "2025-268AA", "EPOCH": "2025-12-22T04:00:01.998720", "MEAN_MOTION": 15.56418215, "ECCENTRICITY": 0.0001582, "INCLINATION": 43.0007, "RA_OF_ASC_NODE": 65.8475, "ARG_OF_PERICENTER": 257.3237, "MEAN_ANOMALY": 56.5423, "EPHEMERIS_TYPE": 0, "CLASSIFICATION_TYPE": "U", "NORAD_CAT_ID": 66581, "ELEMENT_SET_NO": 999, "REV_AT_EPOCH": 613, "BSTAR": -0.0006578, "MEAN_MOTION_DOT": -0.00047814, "MEAN_MOTION_DDOT": 0}, "tle": {"line1": "1 66581U 25268AA  25356.16668980 -.00047814  00000+0 -65780-3 0  9998", "line2": "2 66581  43.0007  65.8475 0001582 257.3237  56.5423 15.56418215  6135"}}, "geometry": {"type": "Point", "coordinates": [-12.832424870556489, -42.21835981189369]}}, {"type": "Feature", "properties": {"norad_id": 66582, "name": "STARLINK-35746", "group": "last-30-days", "lat": -41.88818661324237, "lon": -10.26539310007613, "alt_km": 400.5327975822138, "timestamp": "2025-12-22T11:33:19.152991+00:00", "meta": {"OBJECT_NAME": "STARLINK-35746", "OBJECT_ID": "2025-268AB", "EPOCH": "2025-12-22T04:00:01.998720", "MEAN_MOTION": 15.56450104, "ECCENTRICITY": 0.0001492, "INCLINATION": 43.0006, "RA_OF_ASC_NODE": 65.8422, "ARG_OF_PERICENTER": 256.5861, "MEAN_ANOMALY": 59.2078, "EPHEMERIS_TYPE": 0, "CLASSIFICATION_TYPE": "U", "NORAD_CAT_ID": 66582, "ELEMENT_SET_NO": 999, "REV_AT_EPOCH": 608, "BSTAR": -0.0015527, "MEAN_MOTION_DOT": -0.00111602, "MEAN_MOTION_DDOT": 0}, "tle": {"line1": "1 66582U 25268AB  25356.16668980 -.00111602  00000+0 -15527-2 0  9999", "line2": "2 66582  43.0006  65.8422 0001492 256.5861  59.2078 15.56450104  6084"}}, "geometry": {"type": "Point", "coordinates": [-10.26539310007613, -41.88818661324237]}}, {"type": "Feature", "properties": {"norad_id": 66583, "name": "STARLINK-35941", "group": "last-30-days", "lat": -41.51162325827528, "lon": -7.7884231675073545, "alt_km": 400.4076895538001, "timestamp": "2025-12-22T11:33:19.153001+00:00", "meta": {"OBJECT_NAME": "STARLINK-35941", "OBJECT_ID": "2025-268AC", "EPOCH": "2025-12-22T04:00:01.998720", "MEAN_MOTION": 15.56424832, "ECCENTRICITY": 0.0001575, "INCLINATION": 43.0007, "RA_OF_ASC_NODE": 65.8377, "ARG_OF_PERICENTER": 263.5547, "MEAN_ANOMALY": 54.1432, "EPHEMERIS_TYPE": 0, "CLASSIFICATION_TYPE": "U", "NORAD_CAT_ID": 66583, "ELEMENT_SET_NO": 999, "REV_AT_EPOCH": 613, "BSTAR": -0.00080434, "MEAN_MOTION_DOT": -0.00058322, "MEAN_MOTION_DDOT": 0}, "tle": {"line1": "1 66583U 25268AC  25356.16668980 -.00058322  00000+0 -80434-3 0  9999", "line2": "2 66583  43.0007  65.8377 0001575 263.5547  54.1432 15.56424832  6139"}}, "geometry": {"type": "Point", "coordinates": [-7.7884231675073545, -41.51162325827528]}}]}